H1 CPF 01  gfz 2022 05 19 00  6391 tandemx   
H2 1003001  6202 36605    2022 05 19 00 59 42 2022 05 24 00 00 42   120 1 1  0 0 0
H9
10 0 59722  38862.000000  0    -708909.585   -694813.990  -6823679.131
10 0 59722  38982.000000  0    -995069.331    177522.405  -6821017.844
10 0 59722  39102.000000  0   -1248719.763   1051509.526  -6699430.813
10 0 59722  39222.000000  0   -1465573.313   1911406.622  -6461008.046
10 0 59722  39342.000000  0   -1642245.285   2741633.466  -6109850.965
10 0 59722  39462.000000  0   -1776306.537   3527047.793  -5652011.082
10 0 59722  39582.000000  0   -1866316.222   4253219.653  -5095395.823
10 0 59722  39702.000000  0   -1911834.454   4906698.394  -4449644.026
10 0 59722  39822.000000  0   -1913414.468   5475267.580  -3725969.211
10 0 59722  39942.000000  0   -1872573.290   5948180.888  -2936973.121
10 0 59722  40062.000000  0   -1791741.486   6316374.881  -2096433.098
10 0 59722  40182.000000  0   -1674193.670   6572654.587  -1219064.313
10 0 59722  40302.000000  0   -1523960.117   6711844.369   -320261.144
10 0 59722  40422.000000  0   -1345721.828   6730902.361    584176.154
10 0 59722  40542.000000  0   -1144690.922   6628994.399   1478328.057
10 0 59722  40662.000000  0    -926479.808   6407519.492   2346447.533
10 0 59722  40782.000000  0    -696962.039   6070089.126   3173245.478
10 0 59722  40902.000000  0    -462129.358   5622464.054   3944165.945
10 0 59722  41022.000000  0    -227948.852   5072450.341   4645647.330
10 0 59722  41142.000000  0       -222.311   4429752.075   5265366.122
10 0 59722  41262.000000  0     215548.884   3705788.443   5792448.919
10 0 59722  41382.000000  0     414288.078   2913484.019   6217660.427
10 0 59722  41502.000000  0     591455.693   2067029.564   6533560.133
10 0 59722  41622.000000  0     743147.428   1181623.068   6734626.415
10 0 59722  41742.000000  0     866176.362    273193.633   6817347.188
10 0 59722  41862.000000  0     958137.671   -641884.544   6780276.950
10 0 59722  41982.000000  0    1017454.872  -1547086.744   6624061.808
10 0 59722  42102.000000  0    1043406.926  -2426035.983   6351429.204
10 0 59722  42222.000000  0    1036135.805  -3262800.181   5967143.847
10 0 59722  42342.000000  0     996633.527  -4042183.491   5477927.828
10 0 59722  42462.000000  0     926710.741  -4750004.282   4892347.766
10 0 59722  42582.000000  0     828946.953  -5373358.249   4220671.794
10 0 59722  42702.000000  0     706622.623  -5900863.211   3474694.898
10 0 59722  42822.000000  0     563634.341  -6322877.495   2667533.408
10 0 59722  42942.000000  0     404394.698  -6631685.979   1813393.261
10 0 59722  43062.000000  0     233719.375  -6821649.639    927316.964
10 0 59722  43182.000000  0      56704.409  -6889317.185     24912.674
10 0 59722  43302.000000  0    -121404.309  -6833491.345   -877931.235
10 0 59722  43422.000000  0    -295344.103  -6655247.379  -1765335.738
10 0 59722  43542.000000  0    -459968.242  -6357906.321  -2621717.680
10 0 59722  43662.000000  0    -610375.267  -5946965.036  -3432068.986
10 0 59722  43782.000000  0    -742031.961  -5429983.581  -4182223.183
10 0 59722  43902.000000  0    -850886.507  -4816432.565  -4859102.440
10 0 59722  44022.000000  0    -933469.280  -4117507.154  -5450940.113
10 0 59722  44142.000000  0    -986979.221  -3345912.477  -5947477.163
10 0 59722  44262.000000  0   -1009353.975  -2515625.103  -6340129.827
10 0 59722  44382.000000  0    -999322.906  -1641635.451  -6622126.560
10 0 59722  44502.000000  0    -956442.363   -739677.181  -6788613.385
10 0 59722  44622.000000  0    -881112.902    174052.631  -6836728.756
10 0 59722  44742.000000  0    -774577.277   1083178.360  -6765646.269
10 0 59722  44862.000000  0    -638900.204   1971431.348  -6576587.060
10 0 59722  44982.000000  0    -476930.493   2822933.336  -6272801.314
10 0 59722  45102.000000  0    -292245.046   3622475.142  -5859519.988
10 0 59722  45222.000000  0     -89075.225   4355786.862  -5343874.108
10 0 59722  45342.000000  0     127782.609   5009793.342  -4734782.791
10 0 59722  45462.000000  0     353070.903   5572853.239  -4042810.718
10 0 59722  45582.000000  0     581187.881   6034975.423  -3279994.481
10 0 59722  45702.000000  0     806315.177   6388007.362  -2459640.611
10 0 59722  45822.000000  0    1022553.637   6625791.934  -1596097.706
10 0 59722  45942.000000  0    1224064.103   6744287.545   -704505.352
10 0 59722  46062.000000  0    1405209.913   6741647.508    199475.278
10 0 59722  46182.000000  0    1560697.187   6618254.995   1099943.495
10 0 59722  46302.000000  0    1685708.278   6376713.381   1981046.372
10 0 59722  46422.000000  0    1776026.360   6021793.125   2827265.894
10 0 59722  46542.000000  0    1828147.615   5560335.541   3623700.018
10 0 59722  46662.000000  0    1839377.697   5001115.282   4356332.518
10 0 59722  46782.000000  0    1807910.348   4354664.330   5012284.091
10 0 59722  46902.000000  0    1732885.933   3633061.779   5580039.876
10 0 59722  47022.000000  0    1614428.677   2849699.430   6049646.410
10 0 59722  47142.000000  0    1453663.398   2019027.171   6412882.123
10 0 59722  47262.000000  0    1252710.175   1156280.635   6663396.113
10 0 59722  47382.000000  0    1014657.668    277198.063   6796812.290
10 0 59722  47502.000000  0     743515.768   -602266.088   6810800.469
10 0 59722  47622.000000  0     444147.900  -1466230.189   6705116.324
10 0 59722  47742.000000  0     122183.581  -2299172.464   6481605.477
10 0 59722  47862.000000  0    -216087.364  -3086210.451   6144173.308
10 0 59722  47982.000000  0    -563836.062  -3813368.430   5698718.586
10 0 59722  48102.000000  0    -913829.131  -4467826.250   5153035.094
10 0 59722  48222.000000  0   -1258575.835  -5038150.035   4516684.090
10 0 59722  48342.000000  0   -1590486.364  -5514501.714   3800833.450
10 0 59722  48462.000000  0   -1902035.961  -5888818.930   3018063.672
10 0 59722  48582.000000  0   -2185931.940  -6154960.112   2182146.615
10 0 59722  48702.000000  0   -2435279.760  -6308812.708   1307800.629
10 0 59722  48822.000000  0   -2643742.780  -6348361.651    410425.626
10 0 59722  48942.000000  0   -2805692.341  -6273715.928   -494175.853
10 0 59722  49062.000000  0   -2916344.318  -6087092.217  -1390085.725
10 0 59722  49182.000000  0   -2971878.899  -5792755.801  -2261559.187
10 0 59722  49302.000000  0   -2969540.588  -5396920.626  -3093308.833
10 0 59722  49422.000000  0   -2907715.438  -4907610.881  -3870777.972
10 0 59722  49542.000000  0   -2785983.636  -4334488.481  -4580396.004
10 0 59722  49662.000000  0   -2605147.352  -3688652.874  -5209811.465
10 0 59722  49782.000000  0   -2367234.168  -2982418.154  -5748100.012
10 0 59722  49902.000000  0   -2075476.228  -2229072.386  -6185944.915
10 0 59722  50022.000000  0   -1734264.757  -1442624.085  -6515787.782
10 0 59722  50142.000000  0   -1349081.915   -637541.219  -6731947.124
10 0 59722  50262.000000  0    -926412.648    171511.941  -6830705.091
10 0 59722  50382.000000  0    -473636.865    969935.740  -6810363.930
10 0 59722  50502.000000  0       1096.970   1743451.655  -6671271.838
10 0 59722  50622.000000  0     489013.477   2478350.615  -6415818.097
10 0 59722  50742.000000  0     980868.623   3161731.806  -6048398.700
10 0 59722  50862.000000  0    1467121.105   3781727.465  -5575348.066
10 0 59722  50982.000000  0    1938113.087   4327709.161  -5004840.079
10 0 59722  51102.000000  0    2384259.313   4790474.241  -4346759.012
10 0 59722  51222.000000  0    2796240.430   5162408.568  -3612538.507
10 0 59722  51342.000000  0    3165196.402   5437620.520  -2814971.590
10 0 59722  51462.000000  0    3482917.133   5612044.459  -1967993.536
10 0 59722  51582.000000  0    3742024.761   5683509.111  -1086440.006
10 0 59722  51702.000000  0    3936142.570   5651769.436   -185784.842
10 0 59722  51822.000000  0    4060046.097   5518499.802    718137.138
10 0 59722  51942.000000  0    4109792.618   5287247.748   1609416.222
10 0 59722  52062.000000  0    4082825.025   4963349.999   2472355.061
10 0 59722  52182.000000  0    3978049.091   4553815.004   3291754.668
10 0 59722  52302.000000  0    3795878.075   4067168.336   4053190.296
10 0 59722  52422.000000  0    3538248.142   3513271.172   4743268.293
10 0 59722  52542.000000  0    3208602.597   2903116.353   5349865.666
10 0 59722  52662.000000  0    2811842.000   2248602.989   5862342.104
10 0 59722  52782.000000  0    2354248.939   1562299.255   6271720.554
10 0 59722  52902.000000  0    1843385.375    857197.101   6570839.563
10 0 59722  53022.000000  0    1287964.178    146464.485   6754471.732
10 0 59722  53142.000000  0     697698.472   -556799.319   6819410.068
10 0 59722  53262.000000  0      83131.087  -1239805.396   6764521.721
10 0 59722  53382.000000  0    -544554.115  -1890307.778   6590766.074
10 0 59722  53502.000000  0   -1173735.735  -2496823.116   6301178.157
10 0 59722  53622.000000  0   -1792568.329  -3048833.347   5900817.344
10 0 59722  53742.000000  0   -2389203.221  -3536969.383   5396685.405
10 0 59722  53862.000000  0   -2952016.871  -3953174.580   4797612.080
10 0 59722  53982.000000  0   -3469841.769  -4290843.192   4114105.922
10 0 59722  54102.000000  0   -3932191.731  -4544930.017   3358172.732
10 0 59722  54222.000000  0   -4329477.153  -4712029.901   2543106.123
10 0 59722  54342.000000  0   -4653207.189  -4790425.698   1683253.173
10 0 59722  54462.000000  0   -4896173.557  -4780101.812    793757.340
10 0 59722  54582.000000  0   -5052610.393  -4682722.744   -109714.876
10 0 59722  54702.000000  0   -5118326.552  -4501577.503  -1011258.256
10 0 59722  54822.000000  0   -5090806.253  -4241490.854  -1895018.641
10 0 59722  54942.000000  0   -4969274.701  -3908702.785  -2745480.704
10 0 59722  55062.000000  0   -4754727.543  -3510720.683  -3547745.654
10 0 59722  55182.000000  0   -4449925.312  -3056149.384  -4287793.939
10 0 59722  55302.000000  0   -4059353.308  -2554503.095  -4952728.866
99
